OBJECT_NAME,OBJECT_ID,EPOCH,MEAN_MOTION,ECCENTRICITY,INCLINATION,RA_OF_ASC_NODE,ARG_OF_PERICENTER,MEAN_ANOMALY,EPHEMERIS_TYPE,CLASSIFICATION_TYPE,NORAD_CAT_ID,ELEMENT_SET_NO,REV_AT_EPOCH,BSTAR,MEAN_MOTION_DOT,MEAN_MOTION_DDOT
COSMOS 2532 (RODNIK-S 18),2018-097C,2026-07-12T14:56:12.280704,12.42910635,.00181466,82.5114,206.3361,6.4365,353.6945,0,U,43753,999,34543,.27366864E-3,.48E-6,0
MINXSS-2,2018-099A,2026-07-11T18:55:58.552032,15.48644977,.00083797,97.4535,269.8221,170.8889,189.2515,0,U,43758,999,41793,.45525209E-3,.24308E-3,0
SIRION PATHFINDER-2,2018-099B,2026-07-11T16:35:34.223712,15.14760800,.00081287,97.4245,241.1675,204.5244,155.5602,0,U,43759,999,41633,.16707902E-3,.3035E-4,0
AISTECHSAT 2,2018-099L,2026-07-12T13:46:40.088640,15.15698033,.00043523,97.4282,241.0538,188.9023,171.2134,0,U,43768,999,41612,.14983635E-3,.2788E-4,0
FOX-1CLIFF (AO-95),2018-099N,2026-07-12T02:39:13.856256,15.27232320,.00070528,97.4378,253.2714,252.7613,107.2854,0,U,43770,999,41702,.26835197E-3,.7092E-4,0
RANGE-A,2018-099R,2026-07-12T13:34:53.153472,15.13595083,.00085477,97.3956,235.4036,255.9276,104.1006,0,U,43773,999,41633,.12512173E-3,.2183E-4,0
SNUSAT-2,2018-099AA,2026-07-12T13:53:41.430336,15.22214772,.00099308,97.4051,246.5762,197.0195,163.0710,0,U,43782,999,41689,.21176566E-3,.4801E-4,0
SNUGLITE,2018-099AC,2026-07-12T02:28:45.679008,15.27714104,.0003307,97.3862,247.1441,167.6677,192.4643,0,U,43784,999,41712,.26686171E-3,.7154E-4,0
ITASAT,2018-099AE,2026-07-12T13:51:39.146688,15.19362010,.00107621,97.4019,244.5851,260.9227,99.0790,0,U,43786,999,41676,.17528579E-3,.3643E-4,0
EAGLET-I,2018-099AJ,2026-07-12T13:56:11.718816,15.13122395,.00095078,97.4222,242.5773,254.7473,105.2708,0,U,43790,999,41617,.11152521E-3,.1913E-4,0
ESEO,2018-099AL,2026-07-12T14:10:16.957056,15.04314971,.00108338,97.3954,229.8897,243.8812,116.1300,0,U,43792,999,41562,.10118103E-3,.1353E-4,0
THEA,2018-099AQ,2026-07-12T03:53:40.069248,15.35866498,.00077246,97.4439,263.1100,184.4059,175.7118,0,U,43796,999,41652,.32200701E-3,.11171E-3,0
ASTROCAST 0.1,2018-099AS,2026-07-11T18:53:39.405696,15.51278683,.00058759,97.4385,272.0791,144.9859,215.1780,0,U,43798,999,41824,.39344646E-3,.23019E-3,0
JY1SAT (JO-97),2018-099AX,2026-07-11T16:29:36.040416,15.34443331,.00065178,97.4124,255.6172,168.9842,191.1545,0,U,43803,999,41738,.301087E-3,.9972E-4,0
SUOMI-100,2018-099AY,2026-07-11T16:29:43.566720,15.28978367,.00101971,97.4182,252.9963,184.1974,175.9182,0,U,43804,999,41716,.26127374E-3,.7288E-4,0
CENTAURI-1,2018-099BD,2026-07-12T01:58:03.280224,15.16606332,.00127512,97.4213,244.2684,236.7539,123.2473,0,U,43809,999,41627,.17764877E-3,.3411E-4,0
GLOBAL-2,2018-099BG,2026-07-12T13:01:18.854112,15.08816851,.00075507,97.3547,229.0016,74.5757,285.6306,0,U,43812,999,41573,.83393152E-4,.1252E-4,0
SEAHAWK-1,2018-099BQ,2026-07-11T15:26:00.423744,15.23202069,.00074803,97.3948,244.7594,211.7845,148.2941,0,U,43820,999,41625,.22168066E-3,.5177E-4,0
SAUDISAT 5A,2018-102A,2026-07-12T15:16:24.586752,15.28304667,.00106486,97.3058,254.7287,51.8363,308.3835,0,U,43831,999,41956,.11755776E-3,.3172E-4,0
SAUDISAT 5B,2018-102C,2026-07-12T15:37:32.748672,15.28548813,.00114135,97.3167,257.8589,53.2184,307.0102,0,U,43833,999,41968,.11425325E-3,.3104E-4,0
ISAT,2018-111D,2026-07-11T19:13:16.488192,15.70261010,.00071391,97.5861,130.0063,146.3017,213.8700,0,U,43879,999,41502,.63877923E-3,.78043E-3,0
UWE-4,2018-111E,2026-07-12T05:58:38.176608,15.47689372,.0005735,97.5842,122.8225,206.6658,153.4298,0,U,43880,999,41465,.39697E-3,.20464E-3,0
D-STAR ONE (SPARROW),2018-111F,2026-07-11T18:55:13.674144,15.83665674,.00067114,97.6096,136.1309,142.9832,217.1901,0,U,43881,999,41525,.77361269E-3,.172546E-2,0
JILIN-1 09,2019-005B,2026-07-12T13:56:00.523104,15.20727470,.00025441,97.4747,288.3299,41.7819,318.3610,0,U,43943,999,41300,.1200722E-3,.2572E-4,0
JILIN-1 10,2019-005E,2026-07-12T13:42:36.062208,15.25989104,.00083218,97.4797,292.3807,178.6175,181.5087,0,U,43946,999,41318,.13938964E-3,.3511E-4,0
EGYPTSAT-A (MISRSAT-A),2019-008A,2026-07-12T15:05:09.383712,14.72336516,.0001726,98.0188,258.0479,95.1289,265.0116,0,U,44047,999,39698,.12888913E-3,.766E-5,0
EMISAT,2019-018A,2026-07-12T15:36:01.804032,14.43649048,.00192151,98.4641,252.3087,138.4256,221.8400,0,U,44078,999,38373,.74350347E-4,.209E-5,0
JILIN-1 GAOFEN 3A,2019-032C,2026-07-12T12:00:17.623872,15.33155930,.00046919,44.9729,217.5664,84.2828,275.8592,0,U,44312,999,39172,.17832924E-3,.5515E-4,0
WT 1B,2019-032G,2026-07-12T15:21:55.535040,15.27692629,.00085823,44.9738,281.9546,20.5169,339.6056,0,U,44316,999,39097,.21692398E-3,.5692E-4,0
